TDRS 3                  
1 19548U 88091B   22328.41436772 -.00000288  00000+0  00000+0 0  9991
2 19548  13.5997 350.0776 0038338 328.4196 205.3307  1.00270977112343
HST                     
1 20580U 90037B   22328.36535030  .00002085  00000+0  11002-3 0  9997
2 20580  28.4687 188.7035 0002507 328.1504 207.2799 15.11303460590421
TDRS 5                  
1 21639U 91054B   22328.35863992  .00000095  00000+0  00000+0 0  9994
2 21639  14.2262   3.3989 0023770 352.8131  28.5115  1.00274298114678
TDRS 6                  
1 22314U 93003B   22328.53533983 -.00000285  00000+0  00000+0 0  9997
2 22314  14.1415   6.6573 0007940 150.0659  53.4716  1.00265762109367
TDRS 7                  
1 23613U 95035B   22328.08226942 -.00000190  00000+0  00000+0 0  9996
2 23613  13.9173 357.3633 0023554  53.3649 126.5871  1.00277055100200
ISS (ZARYA)             
1 25544U 98067A   22328.36313807  .00010196  00000+0  18513-3 0  9995
2 25544  51.6442 263.0931 0007099 108.4600  36.0980 15.50181971370028
LANDSAT 7               
1 25682U 99020A   22328.41130570 -.00000485  00000+0 -92257-4 0  9998
2 25682  97.9597  10.2875 0001265  72.3074 287.8249 14.59838350255908
TERRA                   
1 25994U 99068A   22328.49117196  .00000307  00000+0  75069-4 0  9996
2 25994  98.1213  36.7112 0001772  35.5936  20.7581 14.58921143219815
TDRS 8                  
1 26388U 00034A   22328.14007810 -.00000221  00000+0  00000+0 0  9996
2 26388  10.6193  41.4426 0016976 332.5261 188.8714  1.00276461 82139
TIMED                   
1 26998U 01055B   22328.43985217  .00000721  00000+0  80735-4 0  9997
2 26998  74.0715 320.8555 0001660 240.0622 120.0394 14.88959795136810
TDRS 9                  
1 27389U 02011A   22328.30157995 -.00000271  00000+0  00000+0 0  9998
2 27389   9.3597  59.3535 0024670 293.8428 116.2139  1.00278815 77402
AQUA                    
1 27424U 02022A   22328.47337013  .00000526  00000+0  12598-3 0  9990
2 27424  98.2644 268.9717 0001963  81.8724  33.0415 14.57481340 93491
TDRS 10                 
1 27566U 02055A   22328.52336486  .00000104  00000+0  00000+0 0  9995
2 27566   8.4957  49.0514 0004266 316.6972  75.0510  1.00267349 73196
SORCE                   
1 27651U 03004A   22328.51146951  .00001383  00000+0  15284-3 0  9994
2 27651  39.9965  43.4945 0022071 160.8839 199.2783 14.90427185 76957
AURA                    
1 28376U 04026A   22328.49639778  .00000540  00000+0  13010-3 0  9994
2 28376  98.2265 269.6403 0001123  88.7303 271.4024 14.57074499976536
SWIFT                   
1 28485U 04047A   22328.51743864  .00003863  00000+0  21699-3 0  9996
2 28485  20.5570 265.8934 0010372 168.7022 191.3646 15.07597412987728
THEMIS A                
1 30580U 07004A   22328.37993757 -.00000071  00000+0 -60192-1 0  9992
2 30580  12.8340 328.3755 8359705 198.9768 155.7629  0.87834250 29849
THEMIS D                
1 30797U 07004D   22328.24579071 -.00000061  00000+0  00000+0 0  9995
2 30797   8.7037 316.7174 8313046 213.9322 125.4759  0.87836651 29647
THEMIS E                
1 30798U 07004E   22328.38098354 -.00000089  00000+0  00000+0 0  9991
2 30798   9.7673 331.8288 8306561 200.7829 159.0397  0.87840131 54488
AIM                     
1 31304U 07015A   22328.34770156  .00008212  00000+0  37691-3 0  9995
2 31304  97.8588 253.7970 0004318 155.3597 204.7844 15.20688200855461
FGRST (GLAST)           
1 33053U 08029A   22328.23589660  .00001528  00000+0  68187-4 0  9998
2 33053  25.5813 157.2674 0011499 231.6923 128.2579 15.12712309797910
WISE                    
1 36119U 09071A   22328.34676344  .00005862  00000+0  17042-3 0  9998
2 36119  97.2226 359.6471 0004107  90.2984 269.8731 15.35824049720027
TDRS 11                 
1 39070U 13004A   22328.52398097  .00000096  00000+0  00000+0 0  9990
2 39070   2.8077 350.9427 0003176  71.1759  15.6466  1.00267557 33650
TDRS 12                 
1 39504U 14004A   22328.54468115 -.00000253  00000+0  00000+0 0  9990
2 39504   3.7382 350.2931 0002683 218.6022   9.7535  1.00275788 31235
GPM-CORE                
1 39574U 14009C   22328.47971544  .00015079  00000+0  22043-3 0  9995
2 39574  65.0006   3.5998 0011477 259.1344 100.8511 15.55761525496501
MMS 1                   
1 40482U 15011A   22325.92353403  .00000304  00000+0  00000+0 0  9994
2 40482  30.1524  92.7493 8863460  66.5397  23.0546  0.28546206 13759
MMS 2                   
1 40483U 15011B   22325.92631181  .00000304  00000+0  00000+0 0  9997
2 40483  30.1627  92.8009 8863196  66.4850  23.3561  0.28548658 13817
MMS 3                   
1 40484U 15011C   22325.93047847  .00000303  00000+0  00000+0 0  9998
2 40484  30.1687  92.7902 8863063  66.4871  23.8061  0.28564081 13493
MMS 4                   
1 40485U 15011D   22325.84992292  .00000308  00000+0  00000+0 0  9997
2 40485  30.1571  92.7867 8864362  66.4958  15.5092  0.28546340 13709
TDRS 13                 
1 42915U 17047A   22328.42177675 -.00000082  00000+0  00000+0 0  9995
2 42915   4.2615 335.1331 0013766 121.0238 107.6534  1.00270297 19307
JPSS-1                  
1 43013U 17073A   22328.50494168  .00000053  00000+0  46043-4 0  9991
2 43013  98.7318 264.6406 0000900  54.0774 306.0486 14.19561268259931
